{
  "type": "FeatureCollection",
  "features": [
    {
      "type": "Feature",
      "properties": {
        "norad_id": 39766,
        "name": "ALOS-2",
        "group": "resource",
        "lat": 64.4625640108442,
        "lon": 61.18761813404751,
        "alt_km": 623.9001200923858,
        "timestamp": "2025-12-09T05:43:20.384795+00:00",
        "meta_object_name": "ALOS-2",
        "meta_object_id": "2014-029A",
        "meta_epoch": "2025-12-08T19:41:15.006912",
        "meta_mean_motion": 14.79457487,
        "meta_eccentricity": 0.0001453,
        "meta_inclination": 97.923,
        "meta_ra_of_asc_node": 77.7223,
        "meta_arg_of_pericenter": 101.1392,
        "meta_mean_anomaly": 258.9983,
        "meta_ephemeris_type": 0,
        "meta_classification_type": "U",
        "meta_norad_cat_id": 39766,
        "meta_element_set_no": 999,
        "meta_rev_at_epoch": 62343,
        "meta_bstar": 0.0004627,
        "meta_mean_motion_dot": 3.404e-05,
        "meta_mean_motion_ddot": 0,
        "tle_line1": "1 39766U 14029A   25342.82031258  .00003404  00000+0  46270-3 0  9994",
        "tle_line2": "2 39766  97.9230  77.7223 0001453 101.1392 258.9983 14.79457487623439"
      },
      "geometry": {
        "type": "Point",
        "coordinates": [
          61.18761813404751,
          64.4625640108442
        ]
      }
    },
    {
      "type": "Feature",
      "properties": {
        "norad_id": 40010,
        "name": "KAZEOSAT 2",
        "group": "resource",
        "lat": -80.53937230371298,
        "lon": -45.0105556192473,
        "alt_km": 616.7218722980479,
        "timestamp": "2025-12-09T05:43:20.384806+00:00",
        "meta_object_name": "KAZEOSAT 2",
        "meta_object_id": "2014-033A",
        "meta_epoch": "2025-12-08T20:27:03.318336",
        "meta_mean_motion": 14.85157532,
        "meta_eccentricity": 0.0007449,
        "meta_inclination": 97.5501,
        "meta_ra_of_asc_node": 187.367,
        "meta_arg_of_pericenter": 221.2257,
        "meta_mean_anomaly": 138.8397,
        "meta_ephemeris_type": 0,
        "meta_classification_type": "U",
        "meta_norad_cat_id": 40010,
        "meta_element_set_no": 999,
        "meta_rev_at_epoch": 62070,
        "meta_bstar": 0.00015899,
        "meta_mean_motion_dot": 1.311e-05,
        "meta_mean_motion_ddot": 0,
        "tle_line1": "1 40010U 14033A   25342.85212174  .00001311  00000+0  15899-3 0  9992",
        "tle_line2": "2 40010  97.5501 187.3670 0007449 221.2257 138.8397 14.85157532620706"
      },
      "geometry": {
        "type": "Point",
        "coordinates": [
          -45.0105556192473,
          -80.53937230371298
        ]
      }
    },
    {
      "type": "Feature",
      "properties": {
        "norad_id": 40011,
        "name": "HODOYOSHI-4",
        "group": "resource",
        "lat": -36.540977630632625,
        "lon": 177.9292435769381,
        "alt_km": 617.8479890078961,
        "timestamp": "2025-12-09T05:43:20.384817+00:00",
        "meta_object_name": "HODOYOSHI-4",
        "meta_object_id": "2014-033B",
        "meta_epoch": "2025-12-08T20:12:05.328576",
        "meta_mean_motion": 14.87460161,
        "meta_eccentricity": 0.0022836,
        "meta_inclination": 97.5415,
        "meta_ra_of_asc_node": 171.9181,
        "meta_arg_of_pericenter": 213.8419,
        "meta_mean_anomaly": 146.1342,
        "meta_ephemeris_type": 0,
        "meta_classification_type": "U",
        "meta_norad_cat_id": 40011,
        "meta_element_set_no": 999,
        "meta_rev_at_epoch": 62050,
        "meta_bstar": 0.00023272,
        "meta_mean_motion_dot": 2.065e-05,
        "meta_mean_motion_ddot": 0,
        "tle_line1": "1 40011U 14033B   25342.84172834  .00002065  00000+0  23272-3 0  9991",
        "tle_line2": "2 40011  97.5415 171.9181 0022836 213.8419 146.1342 14.87460161620508"
      },
      "geometry": {
        "type": "Point",
        "coordinates": [
          177.9292435769381,
          -36.540977630632625
        ]
      }
    },
    {
      "type": "Feature",
      "properties": {
        "norad_id": 40013,
        "name": "DEIMOS-2",
        "group": "resource",
        "lat": 50.36472906685103,
        "lon": -150.1302792844797,
        "alt_km": 583.5712834198503,
        "timestamp": "2025-12-09T05:43:20.384827+00:00",
        "meta_object_name": "DEIMOS-2",
        "meta_object_id": "2014-033D",
        "meta_epoch": "2025-12-08T21:27:07.247232",
        "meta_mean_motion": 14.92950464,
        "meta_eccentricity": 0.0001083,
        "meta_inclination": 97.6067,
        "meta_ra_of_asc_node": 218.8212,
        "meta_arg_of_pericenter": 92.4256,
        "meta_mean_anomaly": 267.7087,
        "meta_ephemeris_type": 0,
        "meta_classification_type": "U",
        "meta_norad_cat_id": 40013,
        "meta_element_set_no": 999,
        "meta_rev_at_epoch": 60932,
        "meta_bstar": 0.00039451,
        "meta_mean_motion_dot": 4.042e-05,
        "meta_mean_motion_ddot": 0,
        "tle_line1": "1 40013U 14033D   25342.89383388  .00004042  00000+0  39451-3 0  9999",
        "tle_line2": "2 40013  97.6067 218.8212 0001083  92.4256 267.7087 14.92950464609320"
      },
      "geometry": {
        "type": "Point",
        "coordinates": [
          -150.1302792844797,
          50.36472906685103
        ]
      }
    },
    {
      "type": "Feature",
      "properties": {
        "norad_id": 40015,
        "name": "HODOYOSHI-3",
        "group": "resource",
        "lat": -75.7526572662093,
        "lon": -178.95609109007523,
        "alt_km": 600.9573711200846,
        "timestamp": "2025-12-09T05:43:20.384838+00:00",
        "meta_object_name": "HODOYOSHI-3",
        "meta_object_id": "2014-033F",
        "meta_epoch": "2025-12-08T17:07:57.903168",
        "meta_mean_motion": 14.84786721,
        "meta_eccentricity": 0.003181,
        "meta_inclination": 97.6199,
        "meta_ra_of_asc_node": 148.7241,
        "meta_arg_of_pericenter": 261.7408,
        "meta_mean_anomaly": 98.0199,
        "meta_ephemeris_type": 0,
        "meta_classification_type": "U",
        "meta_norad_cat_id": 40015,
        "meta_element_set_no": 999,
        "meta_rev_at_epoch": 61935,
        "meta_bstar": 0.00036831,
        "meta_mean_motion_dot": 3.101e-05,
        "meta_mean_motion_ddot": 0,
        "tle_line1": "1 40015U 14033F   25342.71386462  .00003101  00000+0  36831-3 0  9992",
        "tle_line2": "2 40015  97.6199 148.7241 0031810 261.7408  98.0199 14.84786721619359"
      },
      "geometry": {
        "type": "Point",
        "coordinates": [
          -178.95609109007523,
          -75.7526572662093
        ]
      }
    },
    {
      "type": "Feature",
      "properties": {
        "norad_id": 40053,
        "name": "SPOT 7",
        "group": "resource",
        "lat": -51.86378534898707,
        "lon": 55.83334013660584,
        "alt_km": 698.6094906142916,
        "timestamp": "2025-12-09T05:43:20.384870+00:00",
        "meta_object_name": "SPOT 7",
        "meta_object_id": "2014-034A",
        "meta_epoch": "2025-12-08T20:05:55.648032",
        "meta_mean_motion": 14.60726135,
        "meta_eccentricity": 0.0001534,
        "meta_inclination": 98.0908,
        "meta_ra_of_asc_node": 45.0029,
        "meta_arg_of_pericenter": 88.6191,
        "meta_mean_anomaly": 271.5185,
        "meta_ephemeris_type": 0,
        "meta_classification_type": "U",
        "meta_norad_cat_id": 40053,
        "meta_element_set_no": 999,
        "meta_rev_at_epoch": 60934,
        "meta_bstar": 0.00019195,
        "meta_mean_motion_dot": 8.9e-06,
        "meta_mean_motion_ddot": 0,
        "tle_line1": "1 40053U 14034A   25342.83744963  .00000890  00000+0  19195-3 0  9998",
        "tle_line2": "2 40053  98.0908  45.0029 0001534  88.6191 271.5185 14.60726135609340"
      },
      "geometry": {
        "type": "Point",
        "coordinates": [
          55.83334013660584,
          -51.86378534898707
        ]
      }
    },
    {
      "type": "Feature",
      "properties": {
        "norad_id": 40072,
        "name": "SKYSAT-B",
        "group": "resource",
        "lat": -81.35400481030709,
        "lon": 31.48258443941201,
        "alt_km": 614.8913238993791,
        "timestamp": "2025-12-09T05:43:20.384882+00:00",
        "meta_object_name": "SKYSAT-B",
        "meta_object_id": "2014-037D",
        "meta_epoch": "2025-12-08T18:50:03.590592",
        "meta_mean_motion": 14.87305642,
        "meta_eccentricity": 0.0005828,
        "meta_inclination": 98.3606,
        "meta_ra_of_asc_node": 286.2818,
        "meta_arg_of_pericenter": 162.0529,
        "meta_mean_anomaly": 198.0892,
        "meta_ephemeris_type": 0,
        "meta_classification_type": "U",
        "meta_norad_cat_id": 40072,
        "meta_element_set_no": 999,
        "meta_rev_at_epoch": 61765,
        "meta_bstar": 0.00040028,
        "meta_mean_motion_dot": 3.552e-05,
        "meta_mean_motion_ddot": 0,
        "tle_line1": "1 40072U 14037D   25342.78476378  .00003552  00000+0  40028-3 0  9995",
        "tle_line2": "2 40072  98.3606 286.2818 0005828 162.0529 198.0892 14.87305642617652"
      },
      "geometry": {
        "type": "Point",
        "coordinates": [
          31.48258443941201,
          -81.35400481030709
        ]
      }
    }
  ]
}